OBJECT_NAME,OBJECT_ID,EPOCH,MEAN_MOTION,ECCENTRICITY,INCLINATION,RA_OF_ASC_NODE,ARG_OF_PERICENTER,MEAN_ANOMALY,EPHEMERIS_TYPE,CLASSIFICATION_TYPE,NORAD_CAT_ID,ELEMENT_SET_NO,REV_AT_EPOCH,BSTAR,MEAN_MOTION_DOT,MEAN_MOTION_DDOT
SIRION PATHFINDER-2,2018-099B,2026-06-19T02:20:43.637856,15.14561480,.00071663,97.4247,219.1098,296.6834,63.3664,0,U,43759,999,41291,.2142483E-3,.3888E-4,0
CORVUS BC4,2018-099K,2026-06-19T02:33:54.860544,15.12508338,.00080947,97.4063,213.0311,6.8050,353.3290,0,U,43767,999,41269,.18108051E-3,.3092E-4,0
M2 PATHFINDER,2020-037E,2026-06-19T02:36:05.372064,15.04680712,.00124926,97.8144,1.3618,140.6404,219.5732,0,U,45727,999,32578,.95016181E-4,.1274E-4,0
NETSAT-4,2020-068U,2026-06-19T00:06:19.215648,15.43912955,.00036223,97.8604,178.3912,329.8172,30.2865,0,U,46504,999,31605,.29598827E-3,.13363E-3,0
NETSAT-3,2020-068V,2026-06-19T06:30:57.980160,15.42740434,.00039094,97.8651,176.8934,353.1921,6.9271,0,U,46505,999,31600,.3675552E-3,.1598E-3,0
NETSAT-1,2020-068W,2026-06-18T10:32:51.350208,15.34667272,.0004889,97.8747,170.3121,28.7816,331.3694,0,U,46506,999,31549,.29212E-3,.9731E-4,0
NETSAT-2,2020-068X,2026-06-19T07:13:10.506720,15.46075360,.00032344,97.8613,178.6130,19.8924,340.2449,0,U,46507,999,31606,.40758047E-3,.19862E-3,0
GREENCUBE (IO-117),2022-080E,2026-06-18T10:18:19.245024,6.42583246,.0008904,70.1442,297.8130,289.4279,70.5418,0,U,53109,999,9214,0,-.3E-7,0
SITRO-AIS 5 (KATYS),2023-091L,2026-06-19T07:03:56.244672,15.29497295,.00127298,97.5056,234.2141,97.0376,263.2312,0,U,57176,999,16466,.34204578E-3,.9729E-4,0
SITRO-AIS 6 (CHIRKIN),2023-091AC,2026-06-19T05:06:12.020832,15.25966329,.00130955,97.5062,233.2398,100.2686,260.0029,0,U,57192,999,16459,.31114064E-3,.7938E-4,0
SITRO-AIS 8 (ANOKHIN),2023-091AD,2026-06-19T05:49:06.033216,15.32184703,.00117584,97.5051,235.7585,93.7670,266.4916,0,U,57193,999,16476,.40497525E-3,.12538E-3,0
SITRO-AIS 7 (FARTUSHNIY),2023-091AE,2026-06-19T06:45:46.623168,15.25654929,.00129533,97.5059,233.1332,100.9785,259.2911,0,U,57194,999,16459,.30519463E-3,.7711E-4,0
SITRO-AIS 10 (BURDAEV),2023-091AK,2026-06-19T06:22:03.773280,15.38678952,.00073666,97.5076,240.8573,74.0289,286.1767,0,U,57199,999,16508,.44168005E-3,.16824E-3,0
SITRO-AIS 9 (SHCHUKIN),2023-091AM,2026-06-19T07:01:02.164224,15.38185302,.00076308,97.5075,240.6134,74.2456,285.9630,0,U,57201,999,16507,.43586519E-3,.16337E-3,0
SITRO-AIS 12 (SMIRENNIY),2023-091AQ,2026-06-19T06:46:57.219744,15.38479326,.00071423,97.5088,241.0719,69.1866,291.0143,0,U,57204,999,16509,.45460955E-3,.17207E-3,0
SITRO-AIS 11 (SHEFFER),2023-091AU,2026-06-19T07:05:26.265696,15.38904069,.00070248,97.5086,241.3330,69.1532,291.0465,0,U,57208,999,16511,.42576221E-3,.16332E-3,0
SITRO-AIS 25,2024-039R,2026-06-19T07:39:32.830272,14.93522679,.01432432,95.3912,236.5576,321.2448,37.8568,0,U,59066,999,12504,.17415202E-3,.2208E-4,0
SITRO-AIS 26,2024-039S,2026-06-19T07:41:56.562720,14.93318375,.01435991,95.3909,236.4559,321.8297,37.2825,0,U,59067,999,12503,.17099631E-3,.2157E-4,0
SITRO-AIS 27,2024-039T,2026-06-19T06:58:13.831104,14.93738533,.01426441,95.3914,236.7077,320.5353,38.5550,0,U,59068,999,12505,.14994285E-3,.1904E-4,0
SITRO-AIS 28,2024-039U,2026-06-19T06:25:41.049408,14.93772591,.01425202,95.3912,236.7397,320.4470,38.6422,0,U,59071,999,12505,.1773264E-3,.226E-4,0
GRBBETA,2024-128C,2026-06-19T05:03:57.507264,15.06649187,.00403838,61.9881,209.1654,135.0817,225.3555,0,U,60237,999,10657,.16345037E-3,.2258E-4,0
OOV-CUBE (TUBSAT-30),2024-128F,2026-06-19T06:01:48.400032,15.02780201,.0044384,61.9931,218.3757,134.2215,226.2535,0,U,60240,999,10642,.11405923E-3,.1348E-4,0
ROBUSTA-3A (MEDITERRANEE),2024-128J,2026-06-19T04:26:58.716384,15.11692287,.004117,61.9845,201.1774,128.3353,232.1455,0,U,60243,999,10672,.25047076E-3,.4142E-4,0
LASARSAT,2024-247Q,2026-06-19T05:41:25.950624,15.46478077,.00079811,44.9730,250.6948,343.1641,16.8983,0,U,62391,999,8363,.54177992E-3,.27238E-3,0
CROCUBE,2024-247T,2026-06-17T16:25:00.765696,15.48292245,.00079679,44.9716,256.7472,338.3414,21.7139,0,U,62394,999,8342,.53654775E-3,.2875E-3,0
FORESAIL-1 PRIME,2025-276DS,2026-06-19T05:40:54.172704,15.18717781,.00039543,97.4197,243.4703,99.0145,261.1537,0,U,66778,999,3071,.19349687E-3,.3949E-4,0
KNACKSAT-2,1998-067XZ,2026-06-17T14:33:42.297120,15.60014370,.0009088,51.6314,292.3670,217.1010,142.9356,0,U,67683,999,2034,.49993E-3,.40994E-3,0
