
CORVUS BC4
1 43767U 18099K   26170.10688496  .00003092  00000+0  18108-3 0  9996
2 43767  97.4063 213.0311 0008094   6.8050 353.3290 15.12508338412692

CROCUBE
1 62394U 24247T   26168.68403664  .00028750  00000+0  53655-3 0  9991
2 62394  44.9716 256.7472 0007967 338.3414  21.7139 15.48292245 83427

FORESAIL-1 PRIME
1 66778U 25276DS  26170.23673811  .00003949  00000+0  19350-3 0  9998
2 66778  97.4197 243.4703 0003954  99.0145 261.1537 15.18717781 30717

GRBBETA
1 60237U 24128C   26170.21108226  .00002258  00000+0  16345-3 0  9991
2 60237  61.9881 209.1654 0040383 135.0817 225.3555 15.06649187106576

GREENCUBE (IO-117)
1 53109U 22080E   26169.42938941 -.00000003  00000+0  00000+0 0  9996
2 53109  70.1442 297.8130 0008904 289.4279  70.5418  6.42583246 92141

KNACKSAT-2
1 67683U 98067XZ  26168.60673955  .00040994  00000+0  49993-3 0  9996
2 67683  51.6314 292.3670 0009088 217.1010 142.9356 15.60014370 20344

LASARSAT
1 62391U 24247Q   26170.23710591  .00027238  00000+0  54178-3 0  9993
2 62391  44.9730 250.6948 0007981 343.1641  16.8983 15.46478077 83635

M2 PATHFINDER
1 45727U 20037E   26170.10839551  .00001274  00000+0  95016-4 0  9993
2 45727  97.8144   1.3618 0012492 140.6404 219.5732 15.04680712325784

NETSAT-1
1 46506U 20068W   26169.43948322  .00009731  00000+0  29212-3 0  9994
2 46506  97.8747 170.3121 0004889  28.7816 331.3694 15.34667272315495

NETSAT-2
1 46507U 20068X   26170.30081605  .00019862  00000+0  40758-3 0  9999
2 46507  97.8613 178.6130 0003234  19.8924 340.2449 15.46075360316068

NETSAT-3
1 46505U 20068V   26170.27150440  .00015980  00000+0  36756-3 0  9997
2 46505  97.8651 176.8934 0003909 353.1921   6.9271 15.42740434316000

NETSAT-4
1 46504U 20068U   26170.00438907  .00013363  00000+0  29599-3 0  9994
2 46504  97.8604 178.3912 0003622 329.8172  30.2865 15.43912955316054

OOV-CUBE (TUBSAT-30)
1 60240U 24128F   26170.25125463  .00001348  00000+0  11406-3 0  9993
2 60240  61.9931 218.3757 0044384 134.2215 226.2535 15.02780201106421

ROBUSTA-3A (MEDITERRAN*)
1 60243U 24128J   26170.18540181  .00004142  00000+0  25047-3 0  9997
2 60243  61.9845 201.1774 0041170 128.3353 232.1455 15.11692287106720

SIRION PATHFINDER-2
1 43759U 18099B   26170.09772729  .00003888  00000+0  21425-3 0  9997
2 43759  97.4247 219.1098 0007166 296.6834  63.3664 15.14561480412911

SITRO-AIS 10 (BURDAEV)
1 57199U 23091AK  26170.26532145  .00016824  00000+0  44168-3 0  9996
2 57199  97.5076 240.8573 0007366  74.0289 286.1767 15.38678952165089

SITRO-AIS 11 (SHEFFER)
1 57208U 23091AU  26170.29544289  .00016332  00000+0  42576-3 0  9997
2 57208  97.5086 241.3330 0007024  69.1532 291.0465 15.38904069165110

SITRO-AIS 12 (SMIRENNIY)
1 57204U 23091AQ  26170.28260671  .00017207  00000+0  45461-3 0  9990
2 57204  97.5088 241.0719 0007142  69.1866 291.0143 15.38479326165090

SITRO-AIS 25
1 59066U 24039R   26170.31912998  .00002208  00000+0  17415-3 0  9994
2 59066  95.3912 236.5576 0143243 321.2448  37.8568 14.93522679125049

SITRO-AIS 26
1 59067U 24039S   26170.32079355  .00002157  00000+0  17100-3 0  9991
2 59067  95.3909 236.4559 0143599 321.8297  37.2825 14.93318375125033

SITRO-AIS 27
1 59068U 24039T   26170.29043786  .00001904  00000+0  14994-3 0  9994
2 59068  95.3914 236.7077 0142644 320.5353  38.5550 14.93738533125050

SITRO-AIS 28
1 59071U 24039U   26170.26783622  .00002260  00000+0  17733-3 0  9995
2 59071  95.3912 236.7397 0142520 320.4470  38.6422 14.93772591125050

SITRO-AIS 5 (KATYS)
1 57176U 23091L   26170.29440098  .00009729  00000+0  34205-3 0  9996
2 57176  97.5056 234.2141 0012729  97.0376 263.2312 15.29497295164665

SITRO-AIS 6 (CHIRKIN)
1 57192U 23091AC  26170.21263913  .00007938  00000+0  31114-3 0  9991
2 57192  97.5062 233.2398 0013095 100.2686 260.0029 15.25966329164598

SITRO-AIS 7 (FARTUSHNIY)
1 57194U 23091AE  26170.28178962  .00007711  00000+0  30519-3 0  9996
2 57194  97.5059 233.1332 0012953 100.9785 259.2911 15.25654929164592

SITRO-AIS 8 (ANOKHIN)
1 57193U 23091AD  26170.24243094  .00012538  00000+0  40498-3 0  9990
2 57193  97.5051 235.7585 0011758  93.7670 266.4916 15.32184703164765

SITRO-AIS 9 (SHCHUKIN)
1 57201U 23091AM  26170.29238616  .00016337  00000+0  43587-3 0  9992
2 57201  97.5075 240.6134 0007630  74.2456 285.9630 15.38185302165072
